0 THOR BURNER 2A DEB
1 28593U 74015E   13280.57712403  .00000926  00000-0  38070-3 0  9041
2 28593 099.0289 046.3949 0066973 292.7945 066.6169 14.28362492451331
0 THOR BURNER 2A DEB
1 28593U 74015E   13286.60134958  .00001261  00000-0  51112-3 0  9061
2 28593 099.0301 052.6255 0067017 275.1449 084.2085 14.28378130452194
0 THOR BURNER 2A DEB
1 28593U 74015E   13289.12310227  .00001502  00000-0  60517-3 0  9074
2 28593 099.0306 055.2341 0067041 267.7675 091.5827 14.28388468452559
0 THOR BURNER 2A DEB
1 28593U 74015E   13291.15450390  .00001505  00000-0  60639-3 0  9085
2 28593 099.0307 057.3354 0067098 261.8182 097.5384 14.28394460452842
0 THOR BURNER 2A DEB
1 28593U 74015E   13293.60618383  .00001900  00000-0  76029-3 0  9095
2 28593 099.0306 059.8716 0067157 254.6571 104.7180 14.28402024453198
